ORBCOMM FM20            
1 25416U 98046D   25337.63696136  .00001617  00000+0  58054-3 0  9994
2 25416  44.9934  98.5687 0001133 166.4716 193.6163 14.37628880428645
ORBCOMM FM16            
1 25417U 98046E   25337.77169465  .00002388  00000+0  80408-3 0  9994
2 25417  44.9927  87.1889 0003357  95.7603 264.3629 14.39487137428682
ORBCOMM FM15            
1 25418U 98046F   25337.37413918  .00001994  00000+0  68421-3 0  9999
2 25418  44.9963  94.7397 0003253  94.1784 265.9437 14.39110883428617
ORBCOMM FM14            
1 25419U 98046G   25337.34703669  .00002216  00000+0  74907-3 0  9996
2 25419  44.9944  92.5925 0001890 102.0289 258.0772 14.39525359428583
ORBCOMM FM13            
1 25420U 98046H   25337.40522008  .00001885  00000+0  66183-3 0  9999
2 25420  44.9965 102.0024 0003841  60.4079 299.7151 14.38157613427593
ORBCOMM FM21            
1 25475U 98053A   25337.31430029  .00001223  00000+0  44939-3 0  9999
2 25475  45.0066 188.3428 0001893  13.5892 346.5007 14.37762676421583
ORBCOMM FM22            
1 25476U 98053B   25337.91707275  .00001858  00000+0  64299-3 0  9991
2 25476  45.0055 178.9018 0003318   9.8154 350.2759 14.38930624421717
ORBCOMM FM23            
1 25477U 98053C   25337.84678567  .00001679  00000+0  59661-3 0  9993
2 25477  45.0063 187.6757 0002774   5.1334 354.9543 14.38001921421810
