<?xml version="1.0" encoding="UTF-8"?>
<ndm xmlns:xsi="http://www.w3.org/2001/XMLSchema-instance" xsi:noNamespaceSchemaLocation="https://sanaregistry.org/r/ndmxml_unqualified/ndmxml-2.0.0-master-2.0.xsd">
<omm id="CCSDS_OMM_VERS" version="2.0">
<header><CREATION_DATE/><ORIGINATOR/></header><body><segment><metadata><OBJECT_NAME>ORBCOMM FM20</OBJECT_NAME><OBJECT_ID>1998-046D</OBJECT_ID><CENTER_NAME>EARTH</CENTER_NAME><REF_FRAME>TEME</REF_FRAME><TIME_SYSTEM>UTC</TIME_SYSTEM><MEAN_ELEMENT_THEORY>SGP4</MEAN_ELEMENT_THEORY></metadata><data><meanElements><EPOCH>2025-12-03T15:17:13.461504</EPOCH><MEAN_MOTION>14.37628880</MEAN_MOTION><ECCENTRICITY>.00011333</ECCENTRICITY><INCLINATION>44.9934</INCLINATION><RA_OF_ASC_NODE>98.5687</RA_OF_ASC_NODE><ARG_OF_PERICENTER>166.4716</ARG_OF_PERICENTER><MEAN_ANOMALY>193.6163</MEAN_ANOMALY></meanElements><tleParameters><EPHEMERIS_TYPE>0</EPHEMERIS_TYPE><CLASSIFICATION_TYPE>U</CLASSIFICATION_TYPE><NORAD_CAT_ID>25416</NORAD_CAT_ID><ELEMENT_SET_NO>999</ELEMENT_SET_NO><REV_AT_EPOCH>42864</REV_AT_EPOCH><BSTAR>.58054022E-3</BSTAR><MEAN_MOTION_DOT>.1617E-4</MEAN_MOTION_DOT><MEAN_MOTION_DDOT>0</MEAN_MOTION_DDOT></tleParameters></data></segment></body></omm>
<omm id="CCSDS_OMM_VERS" version="2.0">
<header><CREATION_DATE/><ORIGINATOR/></header><body><segment><metadata><OBJECT_NAME>ORBCOMM FM16</OBJECT_NAME><OBJECT_ID>1998-046E</OBJECT_ID><CENTER_NAME>EARTH</CENTER_NAME><REF_FRAME>TEME</REF_FRAME><TIME_SYSTEM>UTC</TIME_SYSTEM><MEAN_ELEMENT_THEORY>SGP4</MEAN_ELEMENT_THEORY></metadata><data><meanElements><EPOCH>2025-12-03T18:31:14.417760</EPOCH><MEAN_MOTION>14.39487137</MEAN_MOTION><ECCENTRICITY>.00033575</ECCENTRICITY><INCLINATION>44.9927</INCLINATION><RA_OF_ASC_NODE>87.1889</RA_OF_ASC_NODE><ARG_OF_PERICENTER>95.7603</ARG_OF_PERICENTER><MEAN_ANOMALY>264.3629</MEAN_ANOMALY></meanElements><tleParameters><EPHEMERIS_TYPE>0</EPHEMERIS_TYPE><CLASSIFICATION_TYPE>U</CLASSIFICATION_TYPE><NORAD_CAT_ID>25417</NORAD_CAT_ID><ELEMENT_SET_NO>999</ELEMENT_SET_NO><REV_AT_EPOCH>42868</REV_AT_EPOCH><BSTAR>.80408288E-3</BSTAR><MEAN_MOTION_DOT>.2388E-4</MEAN_MOTION_DOT><MEAN_MOTION_DDOT>0</MEAN_MOTION_DDOT></tleParameters></data></segment></body></omm>
<omm id="CCSDS_OMM_VERS" version="2.0">
<header><CREATION_DATE/><ORIGINATOR/></header><body><segment><metadata><OBJECT_NAME>ORBCOMM FM15</OBJECT_NAME><OBJECT_ID>1998-046F</OBJECT_ID><CENTER_NAME>EARTH</CENTER_NAME><REF_FRAME>TEME</REF_FRAME><TIME_SYSTEM>UTC</TIME_SYSTEM><MEAN_ELEMENT_THEORY>SGP4</MEAN_ELEMENT_THEORY></metadata><data><meanElements><EPOCH>2025-12-03T08:58:45.625152</EPOCH><MEAN_MOTION>14.39110883</MEAN_MOTION><ECCENTRICITY>.00032532</ECCENTRICITY><INCLINATION>44.9963</INCLINATION><RA_OF_ASC_NODE>94.7397</RA_OF_ASC_NODE><ARG_OF_PERICENTER>94.1784</ARG_OF_PERICENTER><MEAN_ANOMALY>265.9437</MEAN_ANOMALY></meanElements><tleParameters><EPHEMERIS_TYPE>0</EPHEMERIS_TYPE><CLASSIFICATION_TYPE>U</CLASSIFICATION_TYPE><NORAD_CAT_ID>25418</NORAD_CAT_ID><ELEMENT_SET_NO>999</ELEMENT_SET_NO><REV_AT_EPOCH>42861</REV_AT_EPOCH><BSTAR>.68421037E-3</BSTAR><MEAN_MOTION_DOT>.1994E-4</MEAN_MOTION_DOT><MEAN_MOTION_DDOT>0</MEAN_MOTION_DDOT></tleParameters></data></segment></body></omm>
<omm id="CCSDS_OMM_VERS" version="2.0">
<header><CREATION_DATE/><ORIGINATOR/></header><body><segment><metadata><OBJECT_NAME>ORBCOMM FM14</OBJECT_NAME><OBJECT_ID>1998-046G</OBJECT_ID><CENTER_NAME>EARTH</CENTER_NAME><REF_FRAME>TEME</REF_FRAME><TIME_SYSTEM>UTC</TIME_SYSTEM><MEAN_ELEMENT_THEORY>SGP4</MEAN_ELEMENT_THEORY></metadata><data><meanElements><EPOCH>2025-12-03T08:19:43.970016</EPOCH><MEAN_MOTION>14.39525359</MEAN_MOTION><ECCENTRICITY>.000189</ECCENTRICITY><INCLINATION>44.9944</INCLINATION><RA_OF_ASC_NODE>92.5925</RA_OF_ASC_NODE><ARG_OF_PERICENTER>102.0289</ARG_OF_PERICENTER><MEAN_ANOMALY>258.0772</MEAN_ANOMALY></meanElements><tleParameters><EPHEMERIS_TYPE>0</EPHEMERIS_TYPE><CLASSIFICATION_TYPE>U</CLASSIFICATION_TYPE><NORAD_CAT_ID>25419</NORAD_CAT_ID><ELEMENT_SET_NO>999</ELEMENT_SET_NO><REV_AT_EPOCH>42858</REV_AT_EPOCH><BSTAR>.74907E-3</BSTAR><MEAN_MOTION_DOT>.2216E-4</MEAN_MOTION_DOT><MEAN_MOTION_DDOT>0</MEAN_MOTION_DDOT></tleParameters></data></segment></body></omm>
<omm id="CCSDS_OMM_VERS" version="2.0">
<header><CREATION_DATE/><ORIGINATOR/></header><body><segment><metadata><OBJECT_NAME>ORBCOMM FM13</OBJECT_NAME><OBJECT_ID>1998-046H</OBJECT_ID><CENTER_NAME>EARTH</CENTER_NAME><REF_FRAME>TEME</REF_FRAME><TIME_SYSTEM>UTC</TIME_SYSTEM><MEAN_ELEMENT_THEORY>SGP4</MEAN_ELEMENT_THEORY></metadata><data><meanElements><EPOCH>2025-12-03T09:43:31.014912</EPOCH><MEAN_MOTION>14.38157613</MEAN_MOTION><ECCENTRICITY>.00038416</ECCENTRICITY><INCLINATION>44.9965</INCLINATION><RA_OF_ASC_NODE>102.0024</RA_OF_ASC_NODE><ARG_OF_PERICENTER>60.4079</ARG_OF_PERICENTER><MEAN_ANOMALY>299.7151</MEAN_ANOMALY></meanElements><tleParameters><EPHEMERIS_TYPE>0</EPHEMERIS_TYPE><CLASSIFICATION_TYPE>U</CLASSIFICATION_TYPE><NORAD_CAT_ID>25420</NORAD_CAT_ID><ELEMENT_SET_NO>999</ELEMENT_SET_NO><REV_AT_EPOCH>42759</REV_AT_EPOCH><BSTAR>.66182704E-3</BSTAR><MEAN_MOTION_DOT>.1885E-4</MEAN_MOTION_DOT><MEAN_MOTION_DDOT>0</MEAN_MOTION_DDOT></tleParameters></data></segment></body></omm>
<omm id="CCSDS_OMM_VERS" version="2.0">
<header><CREATION_DATE/><ORIGINATOR/></header><body><segment><metadata><OBJECT_NAME>ORBCOMM FM21</OBJECT_NAME><OBJECT_ID>1998-053A</OBJECT_ID><CENTER_NAME>EARTH</CENTER_NAME><REF_FRAME>TEME</REF_FRAME><TIME_SYSTEM>UTC</TIME_SYSTEM><MEAN_ELEMENT_THEORY>SGP4</MEAN_ELEMENT_THEORY></metadata><data><meanElements><EPOCH>2025-12-03T07:32:35.545056</EPOCH><MEAN_MOTION>14.37762676</MEAN_MOTION><ECCENTRICITY>.0001893</ECCENTRICITY><INCLINATION>45.0066</INCLINATION><RA_OF_ASC_NODE>188.3428</RA_OF_ASC_NODE><ARG_OF_PERICENTER>13.5892</ARG_OF_PERICENTER><MEAN_ANOMALY>346.5007</MEAN_ANOMALY></meanElements><tleParameters><EPHEMERIS_TYPE>0</EPHEMERIS_TYPE><CLASSIFICATION_TYPE>U</CLASSIFICATION_TYPE><NORAD_CAT_ID>25475</NORAD_CAT_ID><ELEMENT_SET_NO>999</ELEMENT_SET_NO><REV_AT_EPOCH>42158</REV_AT_EPOCH><BSTAR>.44939E-3</BSTAR><MEAN_MOTION_DOT>.1223E-4</MEAN_MOTION_DOT><MEAN_MOTION_DDOT>0</MEAN_MOTION_DDOT></tleParameters></data></segment></body></omm>
<omm id="CCSDS_OMM_VERS" version="2.0">
<header><CREATION_DATE/><ORIGINATOR/></header><body><segment><metadata><OBJECT_NAME>ORBCOMM FM22</OBJECT_NAME><OBJECT_ID>1998-053B</OBJECT_ID><CENTER_NAME>EARTH</CENTER_NAME><REF_FRAME>TEME</REF_FRAME><TIME_SYSTEM>UTC</TIME_SYSTEM><MEAN_ELEMENT_THEORY>SGP4</MEAN_ELEMENT_THEORY></metadata><data><meanElements><EPOCH>2025-12-03T22:00:35.085600</EPOCH><MEAN_MOTION>14.38930624</MEAN_MOTION><ECCENTRICITY>.00033182</ECCENTRICITY><INCLINATION>45.0055</INCLINATION><RA_OF_ASC_NODE>178.9018</RA_OF_ASC_NODE><ARG_OF_PERICENTER>9.8154</ARG_OF_PERICENTER><MEAN_ANOMALY>350.2759</MEAN_ANOMALY></meanElements><tleParameters><EPHEMERIS_TYPE>0</EPHEMERIS_TYPE><CLASSIFICATION_TYPE>U</CLASSIFICATION_TYPE><NORAD_CAT_ID>25476</NORAD_CAT_ID><ELEMENT_SET_NO>999</ELEMENT_SET_NO><REV_AT_EPOCH>42171</REV_AT_EPOCH><BSTAR>.64299114E-3</BSTAR><MEAN_MOTION_DOT>.1858E-4</MEAN_MOTION_DOT><MEAN_MOTION_DDOT>0</MEAN_MOTION_DDOT></tleParameters></data></segment></body></omm>
<omm id="CCSDS_OMM_VERS" version="2.0">
<header><CREATION_DATE/><ORIGINATOR/></header><body><segment><metadata><OBJECT_NAME>ORBCOMM FM23</OBJECT_NAME><OBJECT_ID>1998-053C</OBJECT_ID><CENTER_NAME>EARTH</CENTER_NAME><REF_FRAME>TEME</REF_FRAME><TIME_SYSTEM>UTC</TIME_SYSTEM><MEAN_ELEMENT_THEORY>SGP4</MEAN_ELEMENT_THEORY></metadata><data><meanElements><EPOCH>2025-12-03T20:19:22.281888</EPOCH><MEAN_MOTION>14.38001921</MEAN_MOTION><ECCENTRICITY>.00027746</ECCENTRICITY><INCLINATION>45.0063</INCLINATION><RA_OF_ASC_NODE>187.6757</RA_OF_ASC_NODE><ARG_OF_PERICENTER>5.1334</ARG_OF_PERICENTER><MEAN_ANOMALY>354.9543</MEAN_ANOMALY></meanElements><tleParameters><EPHEMERIS_TYPE>0</EPHEMERIS_TYPE><CLASSIFICATION_TYPE>U</CLASSIFICATION_TYPE><NORAD_CAT_ID>25477</NORAD_CAT_ID><ELEMENT_SET_NO>999</ELEMENT_SET_NO><REV_AT_EPOCH>42181</REV_AT_EPOCH><BSTAR>.5966143E-3</BSTAR><MEAN_MOTION_DOT>.1679E-4</MEAN_MOTION_DOT><MEAN_MOTION_DDOT>0</MEAN_MOTION_DDOT></tleParameters></data></segment></body></omm>

</ndm>
